locId,locName,countryCode,subnational1Code,lat,lng,latestObsDt,numSpeciesAllTime
L5941152,Acheleia (Αχέλεια),CY,CY-05,34.7285635,32.4791479,2021-03-08 06:42,71
L6194429,Agia Varvara (Αγιά Βαρβάρα),CY,CY-05,34.754081,32.5076874,2023-02-27 10:50,177
L7281027,Agillidere Dam,CY,CY-04,35.2506974,33.5787356,2022-09-03 09:02,40
L6811531,Agios Dimitrianos (Άγιος Δημητριανός),CY,CY-05,34.9081763,32.5509882,2018-01-27 08:30,18
L21433529,Agios Dimitros Park / Πάρκο Αγίου Δημητρίου,CY,CY-01,35.153138,33.35584,2022-11-03 16:31,7
L9234656,Agios Ermolaos Dam,CY,CY-06,35.2621514,33.1684167,2022-10-25 08:35,30
L8677204,Agios Filonas,CY,CY-04,35.6300774,34.3749317,2023-01-04 10:37,103
L5710118,Agios Georgios (St George) Chapel,CY,CY-02,34.6033029,32.9398227,2022-10-12 09:30,103
L20871655,Agios Georgios Park and Lake / Πάρκο και Λίμνη Αγίου Γεωργίου,CY,CY-01,35.142475,33.400028,2023-01-21 16:03,34
L4797006,Agios Nikolaos (Αγιος Νικόλαος) to Omodos (Όμοδος) road,CY,CY-02,34.8648063,32.783246,2022-06-10 07:40,48
L12914075,Agios Nikolaos Monastery (Αγιος Νικόλαος),CY,CY-02,34.5993377,32.9866219,2022-05-14 10:48,21
L22292121,Agios Sozomenos Abandoned Village and Water Treatment Works / 'Αγιος Σωζόμενος,CY,CY-01,35.0649393,33.4398097,2023-02-26 10:05,47
L1122872,Akamas Peninsula NP (Εθνικό Πάρκο Χερσονήσου Ακάμα),CY,CY-05,35.0415,32.3225,2022-12-11 11:57,139
L5653962,Akamas Peninsula NP--Fontana Amaroza (Εθνικό Πάρκο Χερσονήσου Ακάμα--Φοντάνα Αμορόζα),CY,CY-05,35.089528,32.3006845,2023-02-07 13:00,106
L3361213,Akhna (Άχνας) Dam,CY,CY-04,35.0509871,33.8079142,2023-03-04 15:16,203
L12915495,Akoursos (Ακουρσός) Pass,CY,CY-05,34.8720451,32.4121691,2018-04-11 00:00,5
L10874541,Akrotiri (Ακρωτήρι) Environmental Education Centre,CY,CY-02,34.6006447,32.9603148,2023-02-11 07:26,118
L5709990,Akrotiri (Ακρωτήρι) Gravel Pits,CY,CY-02,34.6114369,32.9345139,2023-02-11 08:49,193
L19066165,Akrotiri (Ακρωτήρι) Roadside Marsh South,CY,CY-02,34.6011209,32.9662632,2023-02-11 07:28,36
L12231364,Akrotiri (Ακρωτήρι) Turtles Beach,CY,CY-02,34.6029027,32.9316373,2022-04-06 11:41,13
L5639146,Akrotiri (Ακρωτήρι) Wildflower Area,CY,CY-02,34.599863,32.971885,2022-05-26 09:37,80
L19066078,Akrotiri Lake Southeast,CY,CY-02,34.612867,32.992367,2023-03-05 07:10,52
L918795,Akrotiri Marsh (Phasouri Reed-beds),CY,CY-02,34.6303,32.9298,2023-02-27 16:30,215
L5709855,Akrotiri Salt Lake (Limassol Salt Lake),CY,CY-02,34.6177946,32.9750776,2023-02-28 12:40,231
L8678281,Akrotiri Salt Lake (Limassol Salt Lake)--West,CY,CY-02,34.6153827,32.9475796,2023-02-05 14:03,127
L15792622,Alagadi Turtle Beaches,CY,CY-06,35.334113,33.4924382,2022-09-21 15:32,37
L8910617,Alaminos (Αλαμινός) Beach and surroundings,CY,CY-03,34.7761825,33.4697106,2021-11-02 00:00,36
L6363718,Almyrolivado / Αλμυρολίβαδο Picnic Site,CY,CY-02,34.9301694,32.9023576,2023-02-20 09:50,43
L8678051,Anarita (Αναρίτα) Mast,CY,CY-05,34.7314564,32.5484757,2022-04-12 08:00,78
L3514630,Anarita (Αναρίτα) Park,CY,CY-05,34.7630345,32.5384715,2023-02-25 13:45,118
L8756138,Androlikou,CY,CY-05,34.9984631,32.38209,2022-07-20 08:10,64
L21226171,Anthoupoli Plain / Κάμπος Ανθούπολης,CY,CY-01,35.1115814,33.2677044,2022-10-13 15:20,24
L21393830,Apalos Hill and Trail / Λόφος και Μονοπάτι Απαλού,CY,CY-01,35.089879,33.361894,2022-10-30 12:10,11
L9851837,Aphrodite Hills (Αφροδίτη Χίλς),CY,CY-05,34.686095,32.6080658,2019-08-25 08:00,41
L1122877,Aphrodites Rock,CY,CY-05,34.6642,32.6269,2023-02-05 17:01,52
L7274329,Apostolos Andreas Monastery,CY,CY-04,35.6594581,34.5742321,2022-06-14 14:30,74
L6098853,Argaka (Αργάκα) area,CY,CY-05,35.0801462,32.4968406,2019-03-16 10:26,35
L6361004,Arminou (Αρμίνου) Dam,CY,CY-05,34.877693,32.7387214,2022-04-09 15:00,42
L8677106,Armou (Άρμου) Hills,CY,CY-05,34.8092401,32.491553,2023-02-25 11:00,137
L1122880,Armou (Άρμου) area,CY,CY-05,34.803,32.4895,2022-05-31 08:42,93
L6361041,Arodes (Αρόδες),CY,CY-05,34.925912,32.3809576,2019-09-09 00:00,47
L10030966,Asprokremmos Dam (Φράγμα Ασπρόκρεμμου)--Wood,CY,CY-05,34.72771,32.5522857,2022-12-30 09:45,144
L1122873,Asprokremnos (Ασπρόκρεμμοs) Mast,CY,CY-05,34.7377,32.5503,2022-03-13 11:00,67
L6194400,Asprokremnos Dam (Φράγμα Ασπρόκρεμμου),CY,CY-05,34.7339244,32.5596571,2023-02-25 17:05,192
L2391006,Asprokremnos Dam (Φράγμα Ασπρόκρεμμου)--Pools (Historical until 2012) & Beehives,CY,CY-05,34.7232022,32.5521898,2023-02-08 13:35,162
L4807531,Asprokremnos Dam (Φράγμα Ασπρόκρεμμου)--WTP overlook,CY,CY-05,34.7458794,32.5598073,2023-02-02 11:20,88
L19219585,Atalante Trail,CY,CY-02,34.919935,32.857609,2022-11-07 07:42,31
L22249963,Atalanti Nature Trail / Μονοπάτι Αταλάντης,CY,CY-02,34.9241193,32.8766721,1999-09-08 10:45,8
L18853630,Athalassa Botanical Garden / Βοτανικός Κήπος Αθαλάσσας,CY,CY-01,35.134593,33.380307,2022-06-03 07:47,18
L1323231,Athalassa Lake / Λίμνη Αθαλάσσας,CY,CY-01,35.1278589,33.3871293,2023-03-06 10:00,108
L18853609,Athalassa National Forest Park / Εθνικό Δασικό Πάρκο Αθαλάσσας,CY,CY-01,35.1265587,33.3970185,2022-10-22 07:35,47
L5649612,Avakas Gorge (Φαράγγι Άβακα),CY,CY-05,34.9261542,32.3502088,2022-12-31 10:25,86
L9480388,Avdimou (Αυδήμου) Bay,CY,CY-02,34.6555131,32.7577479,2022-06-16 15:28,46
L4400677,Ayia Napa (Αγία Νάπα)--Coast,CY,CY-04,34.9856369,33.9873111,2023-01-05 12:30,55
L4400553,Ayia Napa (Αγία Νάπα)--Football Fields,CY,CY-04,34.9941363,34.0119338,2022-06-08 11:00,68
L4400652,Ayia Napa (Αγία Νάπα)--Water Treatment Plant,CY,CY-04,34.9924488,34.0423608,2022-07-02 11:19,100
L21268075,Ayia Napa / Αγία Νάπα--Sculpture and Cactus Parks / Πάρκο Γλυπτικής και Πάρκο Κάκτων,CY,CY-04,34.9849302,34.0198212,2023-03-04 12:47,13
L19459953,"Ayia Napa Sea Caves / Θαλασσινές Σπηλιές, Αγία Νάπα",CY,CY-04,34.968304,34.054574,2023-02-10 12:35,27
L7284213,Azganlidere Dam,CY,CY-04,35.4066024,33.8444245,2023-01-06 17:10,44
L2955732,Baths of Aphrodite (Λουτρά της Αφροδίτης),CY,CY-05,35.0585456,32.3451516,2023-01-01 11:11,135
L1323190,Bellapais Abbey,CY,CY-06,35.3074077,33.3553773,2022-07-08 14:56,49
L2090828,Bishop's Farm--Pool,CY,CY-02,34.5966353,32.9851842,2023-02-09 15:21,172
L4797008,Caledonia Falls (Καταρράκτης Καλιδωνίων) Trail,CY,CY-02,34.902019,32.8663516,2022-11-05 13:36,27
L4176325,Caledonia Falls (Καταρράκτης Καλιδωνίων) Trail--Caledonia Waterfall,CY,CY-02,34.9028535,32.8698438,2022-10-01 08:12,20
L8697280,Cape Andreas,CY,CY-04,35.6943158,34.5857794,2022-05-02 12:02,164
L9435810,Cape Andreas Pumphouse Clearing,CY,CY-04,35.6874527,34.5774176,2022-04-20 11:45,65
L4807516,Cape Drepanon (Agios Georgios) (Άγιος Γεώργιος Πέγειας),CY,CY-05,34.9018333,32.3177111,2022-07-19 06:45,128
L20216911,Cape Greco  / Κάβο Γκρέκο--Army Camp Cliffs,CY,CY-04,34.9668908,34.0720971,2022-11-06 09:11,41
L22667650,Cape Greco  / Κάβο Γκρέκο--Trails in area of Monument of Peace / Μνημείο Ειρήνης,CY,CY-04,34.9614069,34.0677452,2023-02-18 14:00,13
L8684840,Cape Greco / Κάβο Γκρέκο,CY,CY-04,34.9662713,34.0764011,2023-03-04 09:10,206
L21085496,Cape Greco / Κάβο Γκρέκο--Scrub and Pines,CY,CY-04,34.9764416,34.0612423,2022-10-07 11:49,24
L20309063,Cape Greco National Forest Park / Εθνικό Πάρκο Κάβο Γκρέκο,CY,CY-04,34.9730904,34.0724675,2022-12-10 14:01,45
L20289323,Cape Greco National Forest Park / Εθνικό Πάρκο Κάβο Γκρέκο--Picnic Site,CY,CY-04,34.9752631,34.0720797,2022-12-24 08:00,76
L12762221,Cape Kiti,CY,CY-03,34.8160298,33.6020492,2012-04-01 00:00,41
L8677184,Cape Kormakitis,CY,CY-06,35.4015601,32.921497,2022-10-22 08:00,97
L22908120,Cape Pyla,CY,CY-03,34.944003,33.857765,2023-03-04 13:38,13
L6762725,Chloraka (Χλώρακα) (Village),CY,CY-05,34.7986901,32.4151368,2022-01-15 00:00,53
L3393189,Dhiarizos (Διάριζος) Valley,CY,CY-05,34.8174312,32.7179167,2021-11-26 07:30,71
L10688628,Dhiarizos Stream Lower Reaches and Mouth,CY,CY-05,34.6959222,32.5618903,2023-02-18 00:00,39
L8677368,Dhiarizos Valley--Extreme View Cafe,CY,CY-05,34.7902989,32.6923943,2022-06-10 07:00,45
L21594265,Dipkarpaz (General),CY,CY-04,35.6792787,34.5655673,2021-04-17 08:00,20
L21019819,Drouseia / Δρούσεια,CY,CY-05,34.9643398,32.3996163,1998-05-15 08:30,6
L18622178,Eleftheria Square / Πλατεία Ελευθερίας,CY,CY-01,35.1693203,33.3611577,2023-02-11 11:33,16
L1122881,Episcope Road,CY,CY-05,34.8051,32.5155,2006-05-28 18:10,13
L3682529,Episkopi,CY,CY-02,34.6753505,32.8470612,2023-02-09 11:45,54
L11053112,Episkopi (Επισκοπή) Environmental Centre and Village,CY,CY-05,34.7926936,32.5251013,2023-02-25 19:00,43
L7284204,Ergazi Dam,CY,CY-04,35.3716582,33.9440256,2020-08-27 12:00,41
L6361203,Evretou Dam (Φράγμα Ευρέτου),CY,CY-05,34.9595429,32.4821413,2023-02-03 09:00,161
L5571127,Ezousa (Έζουσας) River Mouth,CY,CY-05,34.7309184,32.4592009,2022-06-20 10:20,27
L8677178,Ezousas (Έζουυσας) Valley,CY,CY-05,34.7972584,32.5295615,2022-12-10 17:00,59
L8677405,"Ezousas Valley, Episkopi",CY,CY-05,34.8117421,32.5290485,2022-12-20 08:45,72
L4898830,Famagusta Fresh Water Lake,CY,CY-04,35.1344678,33.90486,2023-01-05 16:28,83
L4904024,Famagusta Fresh Water Lake--South,CY,CY-04,35.1215628,33.9098208,2023-01-22 13:10,87
L18718925,Famagusta Gate / Πύλη Αμμοχώστου and Garden of Peace,CY,CY-01,35.174636,33.371953,2022-06-08 18:12,17
L10703199,Filousa (Φιλούσα) (Village),CY,CY-05,34.852523,32.7431508,2021-10-07 17:30,23
L9435885,Fresh Water Lake North,CY,CY-04,35.1291796,33.9155661,2023-01-22 14:00,67
L8677435,Galateia Marsh,CY,CY-04,35.4138032,34.0585346,2023-01-23 07:00,100
L6762694,Germasogeia Reservoir (Φράγμα Γερμασόγειας),CY,CY-02,34.7518522,33.088834,2022-09-12 15:00,98
L6752303,Geroskipou (Γεροσκήπου) (Village),CY,CY-05,34.7585767,32.4573655,2022-04-07 20:00,27
L8679581,Giant Black Pine Track,CY,CY-02,34.9290531,32.8612398,2022-07-06 12:20,24
L4898765,Glapsides Beach and Estuary,CY,CY-04,35.1604069,33.9126921,2023-01-22 15:30,45
L7279286,Goenyeli (Kioneli) Dam,CY,CY-01,35.2348726,33.3023822,2022-10-25 10:20,49
L7274322,Golden Beach,CY,CY-04,35.6424056,34.5375395,2022-05-09 16:00,112
L9272458,Goudi (Γουδί),CY,CY-05,34.99232,32.4425105,2019-05-15 04:30,38
L19342583,Grammiko Park and Presidential Palace / Γραμμικό Πάρκο και Προεδρικό Μέγαρο,CY,CY-01,35.155989,33.346667,2022-05-29 10:50,11
L7281323,Gülseren Göleti,CY,CY-04,35.1406165,33.9186573,2023-01-13 09:15,45
L5616297,Hala Sultan Tekke Mosque (Χαλά Σουλτάν Τεκκέ),CY,CY-03,34.8855261,33.6100531,2022-07-26 17:24,84
L8684874,Jumbo Drain,CY,CY-03,34.9475655,33.6451297,2023-03-04 16:07,44
L21393759,Kakkaristra Canyon / Φαράγγι της Κακκαρίστρας,CY,CY-01,35.093901,33.368539,2023-01-29 12:11,23
L7284187,Kalecik,CY,CY-04,35.3260151,33.9780736,2018-04-08 09:00,12
L7279264,Kalkanli (Agia Eirini) Dam,CY,CY-01,35.2568478,32.9871261,2023-02-20 13:15,95
L19218877,Kalopanagiotis Reservoir / Φράγμα Καλοπαναγιώτης,CY,CY-01,35.00374,32.826084,2022-05-22 19:18,9
L8837071,Kanli Dam,CY,CY-01,35.2379695,33.2598235,2015-09-13 00:00,3
L16716364,Kanli Dere,CY,CY-01,35.2058093,33.3623882,2022-11-05 08:45,19
L7275344,Kanlikoey Reservoir,CY,CY-01,35.2406421,33.2596493,2018-04-03 16:30,19
L6762686,Kannaviou Reservoir (Φράγμα Κανναβιού),CY,CY-05,34.9275692,32.5898881,2023-02-03 11:45,47
L8697380,Kantara,CY,CY-04,35.4058047,33.923615,2023-01-06 11:26,24
L8824338,"Karpas Peninsula, south coast",CY,CY-04,35.6242904,34.4786096,2022-08-30 09:45,78
L4856247,Karpaz NP,CY,CY-04,35.6402781,34.4915771,2022-11-05 13:30,101
L6361208,Kathikas (Κάθικας) (Village),CY,CY-05,34.9127513,32.4208689,2023-01-01 16:25,40
L8678073,Kathikas (Κάθικας) Hills,CY,CY-05,34.9050877,32.4332668,2022-12-15 14:00,84
L9306183,Kathikas - Akoursos,CY,CY-05,34.8990783,32.4291033,2022-05-29 06:49,30
L6811879,Kato Amiantos (Κατω Αμιαντος),CY,CY-02,34.9376281,32.9321945,2018-01-29 14:30,3
L5660827,Kato Drys (Κάτω Δρυς),CY,CY-03,34.8512726,33.3037448,2017-04-06 18:30,11
L1122878,Kato Paphos / Κάτω Πάφος,CY,CY-05,34.7655,32.411,2022-12-11 07:23,95
L6361022,Kedares (Κέδαρες) (Village),CY,CY-05,34.8359273,32.7364683,2020-07-13 19:30,2
L2391030,Kensington Cliffs,CY,CY-02,34.6699939,32.8575754,2023-02-13 11:15,102
L8677927,Kidasi,CY,CY-05,34.8138744,32.7086089,2022-12-12 10:00,63
L8677201,Kiles Point,CY,CY-04,35.6268601,34.4990944,2021-10-28 07:00,68
L7276356,Kilise Keryneia,CY,CY-06,35.3187232,33.2530618,2018-04-04 09:00,20
L6762703,Kiti Dam (Φράγμα Κιτίου),CY,CY-03,34.871551,33.5592721,2022-04-24 18:23,102
L8824279,Kivisili Fields,CY,CY-03,34.8246943,33.5138744,2016-04-19 00:00,18
L9305332,Kormakiti Dam,CY,CY-06,35.3227972,32.9955851,2017-10-18 00:00,17
L6194381,Kouklia (Κούκλια),CY,CY-05,34.7066577,32.5680041,2022-12-30 08:20,100
L8677960,Kouklia Fish Farm,CY,CY-05,34.6871101,32.5770752,2023-01-31 10:15,81
L8679831,Kouklia Soakaways,CY,CY-05,34.7164507,32.5731992,2023-01-31 10:45,100
L3510056,Kourion Stadium,CY,CY-02,34.6706604,32.8764582,2022-11-04 16:54,78
L8429618,Kouris Dam (Φράγμα Κούρη),CY,CY-02,34.7458217,32.9233366,2022-07-23 06:00,64
L8780388,Kritou Tera /  Κρίτου Τέρα,CY,CY-05,34.9563388,32.420661,2022-03-21 12:00,31
L8700686,Kukla Wetlands NR and Reservoir,CY,CY-04,35.1241586,33.7594844,2023-01-03 12:40,156
L8386450,Kykkos Monastery (Μοναστήρι Κύκκου),CY,CY-01,34.9827897,32.7413146,2022-03-25 13:10,48
L8677687,Lady's Mile,CY,CY-02,34.6404306,33.0076949,2023-02-12 08:40,157
L3514727,Lady's Mile Beach,CY,CY-02,34.6180298,33.0051046,2022-12-09 12:46,134
L5649304,Lara Beach (Παραλία Λάρας),CY,CY-05,34.9565884,32.3110485,2023-01-04 14:00,76
L8824448,Larnaca (Λάρνακα) Airport Pools--North,CY,CY-03,34.879726,33.6206396,2023-03-01 12:00,108
L8678037,Larnaca (Λάρνακα) Airport Pools--South,CY,CY-03,34.8481934,33.620108,2023-02-28 09:40,112
L8683890,Larnaca (Λάρνακα) Desalination Fields,CY,CY-03,34.8685278,33.6314522,2023-02-28 00:00,91
L18607857,Larnaca (Λάρνακα) Sea Wall,CY,CY-03,34.901289,33.637959,2023-03-05 12:00,23
L6194500,Larnaca (Λάρνακα) Sewage Works,CY,CY-03,34.8607216,33.6264467,2023-03-08 08:55,207
L5613988,Larnaca Salt Lake (Αλυκή Λάρνακας)--Kamares Viaduct,CY,CY-03,34.9093641,33.6116946,2023-02-09 13:15,109
L1323235,Larnaca Salt Lake / Αλυκή Λάρνακας,CY,CY-03,34.8948509,33.621769,2023-03-05 10:00,178
L19513934,Larnaca Salt Lake / Αλυκή Λάρνακας--Northwest Arm,CY,CY-03,34.90531,33.602535,2022-12-28 08:42,27
L5654015,Latchi (Λατσί) Harbour,CY,CY-05,35.0410734,32.394484,2022-09-29 13:50,55
L21542665,Limnara Valley / Κοιλάδα Λιμνάρα,CY,CY-04,34.9729385,34.0432955,2022-12-23 15:00,50
L19342093,Limni Mangli / Λίμνη Μαγκλή,CY,CY-01,35.127412,33.309818,2023-02-12 12:57,20
L6363705,Livadi tou Pashia,CY,CY-01,34.933934,32.8985167,2023-02-20 08:50,57
L6771056,Livadia (Λιβάδια)--Drainage Channel,CY,CY-03,34.9503614,33.6362193,2018-01-23 14:45,3
L8678075,Livera Spring,CY,CY-06,35.388798,32.9465069,2022-05-01 10:52,33
L8677975,Lower Ezousas,CY,CY-05,34.7355944,32.47069,2023-01-06 09:35,121
L8697344,Lower Ezousas (Έζουσας) Pools (Historical to 2015),CY,CY-05,34.7328964,32.4629991,2022-07-18 19:45,146
L6194354,Lower Xeros Potomas (Ξεροπόταμος) River and Reedbed,CY,CY-05,34.7081394,32.5460315,2022-05-19 09:45,145
L13397049,Mandria (Μανδριά),CY,CY-05,34.7069904,32.5344155,2022-10-24 02:00,117
L8677673,Mandria (Μανδριά)--Coast,CY,CY-05,34.6981544,32.5320111,2023-02-27 08:00,221
L19219012,Marathasa River Nature Trail,CY,CY-01,34.989671,32.829323,2022-12-14 16:45,22
L11301690,Marathounta (lower),CY,CY-05,34.7739446,32.5002683,2023-02-21 08:30,65
L8677154,Marathounta (Μαραθούντα) Hills,CY,CY-05,34.7763631,32.4995333,2023-01-29 08:45,110
L7279278,Masari,CY,CY-01,35.1805433,33.073225,2019-05-23 00:00,6
L8372937,Mathiatis (Μαθιάτης),CY,CY-01,34.9643606,33.3357281,1993-03-23 00:00,10
L2951454,Mavrokolympos Dam,CY,CY-05,34.8563374,32.405709,2022-12-31 15:14,140
L6194493,Meneou (Μενεού) Pools,CY,CY-03,34.8509316,33.6158037,2023-02-28 09:10,113
L5614085,Meneou (Μενεού) Pools--West Pool,CY,CY-03,34.8446273,33.6143875,2022-07-26 11:40,63
L5672170,Meneou (Μενεού) Trailer Park,CY,CY-03,34.859103,33.631057,2022-04-12 15:20,42
L1024034,Mia Milia--Haspolat Sewage Treatment Plant,CY,CY-01,35.1920125,33.4278774,2023-01-23 12:00,95
L8677334,Minthis Hills,CY,CY-05,34.8101195,32.504195,2023-02-23 12:00,139
L4807487,Minthis Hills Golf Course (Restricted access),CY,CY-05,34.8221005,32.4947155,2022-07-02 08:04,27
L18780291,Molos / Μώλος Promenade,CY,CY-02,34.6725207,33.045225,2023-02-05 00:00,18
L4796992,Monagri (Μονάγρι) Orchards,CY,CY-02,34.8012767,32.9171097,2016-07-17 17:30,27
L20739551,Monashilakas Picnic Area,CY,CY-05,34.9261372,32.6475962,2023-02-03 00:00,7
L5570909,Mt Olympos (Χιονίστρα),CY,CY-02,34.9358368,32.8628411,2023-02-23 10:00,58
L7216908,Nata (Νατά) Ford,CY,CY-05,34.7744848,32.5813808,2022-04-10 15:45,97
L20204205,Natura Beach,CY,CY-05,35.0468406,32.4334215,2022-09-23 12:00,40
L18637601,Nicosia Municipal Park / Δημοτικό Πάρκο Λευκωσίας,CY,CY-01,35.173033,33.354224,2022-06-11 12:43,13
L8373168,Odou (Οδού),CY,CY-03,34.8849452,33.151309500000004,2019-12-17 00:00,21
L8718419,Ormideia-Xylofagou Seashore,CY,CY-03,34.9773482,33.7838535,2017-04-08 13:00,24
L8683897,Oroklini Coast,CY,CY-03,34.9659677,33.6662523,2023-02-09 14:30,23
L3721127,Oroklini Lake (Λίμνη Ορόκλινης),CY,CY-03,34.9670376,33.65417,2023-03-04 17:03,180
L5567894,Pachyammos (Παχύαμμος),CY,CY-05,34.7443836,32.4269345,2022-11-16 08:00,60
L18371384,Paphos (Πάφος) Goat Fields,CY,CY-05,34.7660634,32.4079941,2023-01-09 12:23,46
L2391046,Paphos (Πάφος) Headland,CY,CY-05,34.7548711,32.4009562,2023-02-26 09:10,224
L8916123,Paphos (Πάφος) Lighthouse Area,CY,CY-05,34.7606723,32.4060514,2023-02-28 13:30,160
L1122879,Paphos (Πάφος) WTP,CY,CY-05,34.7268,32.469,2023-02-24 07:30,175
L4780745,Paphos Forest (Δάσος Πάφου),CY,CY-01,35.0213933,32.6832104,2016-08-30 00:00,55
L6811618,Paphos Forest (Δάσος Πάφου)--Agia Picnic Site,CY,CY-05,34.9810123,32.6248991,2018-01-27 11:00,6
L6811730,Paphos Forest (Δάσος Πάφου)--Stavros tis Psokas (Σταυρός της Ψώκας),CY,CY-05,35.0237761,32.6293731,2022-04-09 09:30,38
L6361013,Paphos Forest (Δάσος Πάφου)--Tzelefos Bridge (Γιοφύρι Του Τζελεφού),CY,CY-05,34.8893808,32.7472454,2022-07-08 15:29,32
L2245855,Paralimni Lake (Λίμνη Παραλίμνιου),CY,CY-04,35.0368838,33.9665508,2023-02-19 10:00,149
L18690473,Pedagogical Academy Natural Forest Park / Πάρκο/Γήπεδο Οδος Ακροπόλεως,CY,CY-01,35.158551,33.380636,2023-03-05 14:49,20
L19342272,Pedieos River between Grammiko Park and Limni Mangli / Πεδιαίος ποταμός μεταξύ Λίμνη Μαγκλή και Γραμμικό Πάρκο,CY,CY-01,35.141564,33.336731,2022-05-29 11:47,16
L18637745,Pedieos River between Omirou and Grammiko Park / Πεδιαίος ποταμός μεταξύ Ομήρου και Γραμμικό Πάρκο,CY,CY-01,35.165944,33.351658,2023-02-21 10:00,28
L7220075,Perivolia (Περβόλια) Farmland,CY,CY-03,34.824103,33.594595,2023-01-22 07:35,34
L8386508,Perivolia (Περβόλια) to Zigi (Ζύγι),CY,CY-03,34.7767824,33.4616501,1993-03-25 00:00,15
L22249937,Persephone Trail / Μονοπάτη Περσεφόνης,CY,CY-02,34.9125985,32.8897682,2008-04-21 00:00,51
L8678135,Phasouri Bee-hives,CY,CY-02,34.625907,32.9429296,2022-11-03 11:25,45
L9718423,Phinikas/Foinikas (Φοίνικας),CY,CY-05,34.7509405,32.5664154,2022-06-03 10:50,103
L6363654,Pikni Forest (Δάσος Πικνής),CY,CY-05,34.8959984,32.3665166,2022-12-11 08:38,47
L8677214,Pissouri (Πισσούρι) East Cliff,CY,CY-02,34.6595107,32.734183,2022-04-06 09:11,54
L5570883,Pissouri (Πισσούρι) stream and scrubland,CY,CY-02,34.656996,32.6916304,2022-07-26 07:26,61
L6363713,Platania (Εκδρομικός Χώρος Πλατανιών),CY,CY-01,34.9480761,32.9287291,2022-05-08 14:48,21
L8684902,Platania Forest Stn.,CY,CY-01,34.9470912,32.9286218,2023-02-20 11:45,25
L8685037,Platres,CY,CY-02,34.889606,32.8671702,2022-12-14 14:48,55
L8677715,Polis Bay,CY,CY-05,35.0448949,32.4232315,2022-10-08 09:50,126
L4807495,Polis Camping Site (Κατασκηνωτικός Χώρος Πόλης Χρυσοχούς),CY,CY-05,35.0430679,32.4209547,2022-09-24 07:50,113
L1122871,Polis Crysochous (Πόλη Χρυσοχούς),CY,CY-05,35.0349,32.4263,2022-10-24 12:22,63
L4802222,Polis Crysochous (Πόλη Χρυσοχούς) wetlands,CY,CY-05,35.0298558,32.4259973,2022-07-19 19:50,58
L6752117,Potima (Πότιμα) Bay and Beach,CY,CY-05,34.8412496,32.3872418,2023-02-07 14:14,63
L21533961,Prodromos Reservoir / Φράγμα Προδρόμου,CY,CY-01,34.9488618,32.8450283,1999-11-14 08:30,20
L8679639,Psilo Dendron trout farm,CY,CY-02,34.8956992,32.8685403,2022-08-01 11:00,29
L9537311,Pyrga (Πυργά) Quarry (Restricted access),CY,CY-03,34.9090913,33.4432411,2020-03-24 13:03,8
L4856086,Sadrazamköy Trail,CY,CY-06,35.3911444,32.9426515,2022-05-01 07:03,28
L5120780,Salamis Archaeological Site,CY,CY-04,35.1855152,33.9010942,2022-08-08 11:43,28
L7221256,Salamis Bay Conti Hotel,CY,CY-04,35.2046022,33.8982725,2018-04-12 08:30,20
L1323226,Sanctuary of Apollo,CY,CY-02,34.6725174,32.8646779,2022-07-27 07:57,54
L18712189,Saranti / Σαράντι,CY,CY-01,34.968244,32.990356,2022-04-26 17:40,8
L6194473,Secret Valley,CY,CY-05,34.6948734,32.6150823,2023-02-22 09:20,99
L8677356,Silver Beach,CY,CY-04,35.1699013,33.9084827,2023-01-22 16:00,41
L2391067,Smiyies track,CY,CY-05,35.0238816,32.334137,2022-07-15 08:36,98
L22935026,Sotira Pools / Σωτήρα Λιμνούλες,CY,CY-04,35.0275694,33.9664435,2011-09-14 00:00,1
L4807521,Souskiou (Σουσκιού) Deserted Village,CY,CY-05,34.7382975,32.6137304,2019-06-22 00:00,30
L6194517,Spiro's Pool,CY,CY-03,34.8661232,33.6373687,2023-02-28 11:15,150
L8718495,Spyros Beach,CY,CY-03,34.8721647,33.6372146,2023-02-09 09:55,91
L6360843,St Minas Chapel (Ξωκλήσι Αγίου Μηνά),CY,CY-05,35.0241627,32.3403597,2022-04-03 13:19,71
L1323200,St. Hilarion Castle,CY,CY-06,35.3120873,33.2813001,2023-02-11 08:28,46
L5660796,Stavros tis Psokas (Σταυρός της Ψώκας) Mouflon Enclosure,CY,CY-01,35.027074,32.6312399,2023-02-25 13:30,23
L17045935,Stazousa Valley / Στάζουσα,CY,CY-03,34.9025288,33.4911057,2023-02-13 09:30,16
L9205773,Sygkrasi Dam,CY,CY-04,35.2821111,33.8527006,2020-03-05 12:00,38
L11329762,Tala Tracks,CY,CY-05,34.8503348,32.4221194,2021-05-08 09:00,27
L5664157,Tamassos Reservoir (Φράγμα Ταμασσού),CY,CY-01,35.0104684,33.2479334,2022-07-28 08:22,32
L8678042,Theletra Gorge,CY,CY-05,34.9090131,32.4580307,2022-09-09 17:15,42
L7216168,Timi (Τιμή) Beach,CY,CY-05,34.7056405,32.4987345,2023-02-27 10:00,159
L5920731,Timi Forest (Δασάκι Τίμης),CY,CY-05,34.7096084,32.4923706,2023-02-07 11:41,99
L4176304,Tombs of the Kings (Τάφων των Βασιλέων),CY,CY-05,34.7754542,32.404781,2023-02-09 17:17,101
L5715821,Treis Elies (Τρεις Ελιές) (Village and Nature Trail),CY,CY-02,34.9309032,32.7944154,2022-09-17 08:22,38
L8372978,Tremithos River at Agia Anna (Αγία Άννα),CY,CY-03,34.9412925,33.4849548,2019-04-03 09:00,31
L6727126,Troödos (Τρόοδος) (Village),CY,CY-02,34.9216432,32.879988,2022-12-30 13:35,83
L6811882,Troödos (Τρόοδος) Botanical Garden,CY,CY-02,34.9289731,32.9157257,2022-11-05 12:45,50
L1122876,Troödos (Τρόοδος) Mountains (General),CY,CY-02,34.9225431,32.8996653,2023-02-25 11:30,96
L7274178,Troödos (Τρόοδος) Mountains--Picnic Place,CY,CY-01,34.9363967,32.894268,2022-09-17 06:57,44
L8677163,Tsada North Valley,CY,CY-05,34.83764,32.4804032,2023-02-23 11:35,58
L8678182,"Tunnel Beach, Episkopi",CY,CY-02,34.6671246,32.829263,2023-02-13 10:00,49
L20901230,University of Cyprus (New Campus and Fields) / Πανεπιστήμιο Κύπρου (Νέα Πανεπιστημιούπολη και Πεδία),CY,CY-01,35.145483,33.411022,2023-03-08 16:50,57
L4807513,Valley 2 km East of Androlikou (Ανδρολίκου),CY,CY-05,34.9962186,32.4020076,2019-06-04 06:00,15
L3696670,Vasilias Nikoklis Inn,CY,CY-05,34.7321922,32.5843334,2022-04-08 06:32,49
L21412825,Vassiliko / Βασιλικού Quarry,CY,CY-03,34.724745,33.3025613,2022-10-26 15:00,17
L8373214,Vavla (Βάβλα) to Choirokoitia (Χοιροκoιτία),CY,CY-03,34.813849,33.299279,1994-08-13 00:00,10
L6363600,Vretsia (Βρέτσια),CY,CY-05,34.890296,32.6564527,2022-04-16 10:00,56
L3514712,Zakaki (Ζακάκι) Marsh,CY,CY-02,34.642074,33.003173,2023-02-05 16:00,200
L8678081,Zakaki (Ζακάκι) Marsh--Run-off Marsh,CY,CY-02,34.6299753,32.9933348,2023-01-02 10:43,111
L18379902,Çınarlı / Πλατάνι,CY,CY-04,35.3370423,33.7405835,2022-06-17 12:20,10
